EUTELSAT 8 WEST B       
1 40875U 15039B   25320.30668757 -.00000055  00000+0  00000+0 0  9995
2 40875   0.0711  13.3724 0004121 225.8538 278.8340  1.00272219 37529
EUTELSAT 9B             
1 41310U 16005A   25320.36433565  .00000073  00000+0  00000+0 0  9996
2 41310   0.0641  77.4112 0004363 180.0371 298.4021  1.00271081 35981
EUTELSAT 65 WEST A      
1 41382U 16014A   25320.43807501 -.00000265  00000+0  00000+0 0  9992
2 41382   0.1096  61.4736 0002531 187.1427 259.6608  1.00269955 35409
EUTELSAT 117 WEST B     
1 41589U 16038B   25320.35391928 -.00000001  00000+0  00000+0 0  9997
2 41589   0.0188 126.1510 0000142 334.0033 325.9676  1.00273762 34525
EUTELSAT 172B           
1 42741U 17029B   25320.49013831  .00000006  00000+0  00000+0 0  9992
2 42741   0.0339 144.3111 0000146 259.0875   0.8680  1.00272008 31597
EUTELSAT 7C             
1 44334U 19034B   25320.36433565  .00000060  00000+0  00000+0 0  9996
2 44334   0.0712 184.5131 0003283  27.1666 342.2113  1.00271932  4709
EUTELSAT 5 WEST B       
1 44624U 19067A   25320.20253072 -.00000032  00000+0  00000+0 0  9990
2 44624   0.0664 358.2023 0003297 239.4082 245.8412  1.00271960 22309
EUTELSAT KONNECT        
1 45027U 20005B   25318.74008810  .00000054  00000+0  00000+0 0  9999
2 45027   0.0645  95.3629 0001413 182.6181  49.7434  1.00273785 22171
